KAITUO 1B               
1 40912U 15049P   17277.59869134  .00003156  00000-0  15813-3 0  9990
2 40912  97.4524 283.6773 0015580 174.2717 302.2590 15.17998298112883
TIANWANG 1C (TW-1C)     
1 40926U 15051B   17277.39192130  .00015167  00000-0  32686-3 0  9993
2 40926  97.2204 316.1575 0012537 125.8531  62.3489 15.44597710113761
TIANWANG 1B (TW-1B)     
1 40927U 15051C   17277.59444106  .00015292  00000-0  34223-3 0  9997
2 40927  97.2287 316.3267 0012859 136.8757 347.1482 15.43470727113733
TIANWANG 1A (TW-1A)     
1 40928U 15051D   17277.50333656  .00006819  00000-0  19025-3 0  9994
2 40928  97.2179 311.3477 0012904 156.5638 309.5986 15.36981179113483
LAPAN-A2 (IO-86)        
1 40931U 15052B   17277.46719627  .00000788  00000-0  20740-4 0  9996
2 40931   5.9982 173.5597 0013831 348.7092  11.2787 14.76546336109144
LQSAT                   
1 40958U 15057A   17277.54857181  .00000147  00000-0  30672-4 0  9991
2 40958  97.9697 350.9095 0019690  77.0791 283.2620 14.72990475107214
CHUBUSAT-2              
1 41338U 16012B   17277.03601244  .00000659  00000-0  45138-4 0  9998
2 41338  31.0025 140.9197 0013757  56.6768 303.5183 14.99822727 89342
CHUBUSAT-3              
1 41339U 16012C   17277.01605200  .00000806  00000-0  56425-4 0  9998
2 41339  31.0098 140.0170 0013462  62.8876 297.3133 15.00022955 89328
OUFTI-1                 
1 41458U 16025C   17277.59923987  .00003719  00000-0  20068-3 0  9991
2 41458  98.1748 321.4164 0171681 283.9464  74.2705 15.03687838 79024
E-ST@R-II               
1 41459U 16025D   17277.63269623  .00002264  00000-0  12496-3 0  9997
2 41459  98.1755 321.3797 0171629 284.2550  73.9663 15.03487843 79018
AAUSAT 4                
1 41460U 16025E   17277.49392196  .00003320  00000-0  17995-3 0  9998
2 41460  98.1679 321.4102 0164310 282.4911  75.7918 15.04550741 79029
NUSAT 1 (LO-87)         
1 41557U 16033B   17277.43326450  .00002676  00000-0  10211-3 0  9995
2 41557  97.4574 356.9360 0013581 348.4703  11.6222 15.27478599 75103
BEESAT-4                
1 41619U 16040W   17277.14154572  .00002748  00000-0  12606-3 0  9994
2 41619  97.4516 338.4349 0013120  52.9264 307.3170 15.21207636 59158
PRATHAM                 
1 41783U 16059A   17277.60159054  .00000123  00000-0  33237-4 0  9996
2 41783  98.1556 337.7773 0033818 175.6045 184.5460 14.62864816 54594
ALSAT 1N                
1 41789U 16059G   17273.67223976 -.00000048  00000-0  20983-6 0  9993
2 41789  98.1565 334.5978 0028730 180.4198 179.6976 14.64080625 54049
NAYIF-1 (EO-88)         
1 42017U 17008BX  17277.55311920  .00002996  00000-0  12867-3 0  9993
2 42017  97.4845 338.7571 0006424 183.7266 176.3924 15.23461586 35131
LILACSAT-1              
1 42725U 98067ME  17277.50172135  .00026363  00000-0  34441-3 0  9997
2 42725  51.6393 211.4336 0005697  12.4715 347.6418 15.58451947 20527
MAX VALIER SAT          
1 42778U 17036P   17277.59573076  .00002110  00000-0  99195-4 0  9992
2 42778  97.4408 336.0983 0011431 240.2899 119.7199 15.20646511 15653
